[{"OBJECT_NAME":"HAWK-C","OBJECT_ID":"2018-099AT","EPOCH":"2026-03-09T16:08:34.251360","MEAN_MOTION":15.26407167,"ECCENTRICITY":0.00403625,"INCLINATION":97.4027,"RA_OF_ASC_NODE":122.6817,"ARG_OF_PERICENTER":277.4052,"MEAN_ANOMALY":82.2601,"EPHEMERIS_TYPE":0,"CLASSIFICATION_TYPE":"U","NORAD_CAT_ID":43799,"ELEMENT_SET_NO":999,"REV_AT_EPOCH":39872,"BSTAR":0.00035662773,"MEAN_MOTION_DOT":9.431e-5,"MEAN_MOTION_DDOT":0},{"OBJECT_NAME":"OBJECT A","OBJECT_ID":"2026-027A","EPOCH":"2026-03-09T21:37:47.784000","MEAN_MOTION":15.17715556,"ECCENTRICITY":0.00101917,"INCLINATION":97.4902,"RA_OF_ASC_NODE":197.9118,"ARG_OF_PERICENTER":193.8683,"MEAN_ANOMALY":166.2272,"EPHEMERIS_TYPE":0,"CLASSIFICATION_TYPE":"U","NORAD_CAT_ID":67746,"ELEMENT_SET_NO":999,"REV_AT_EPOCH":389,"BSTAR":0.00052290801,"MEAN_MOTION_DOT":0.00010498,"MEAN_MOTION_DDOT":0}]
